[
    {
        "OBJECT_NAME": "GSAT0225 (GALILEO 29)",
        "OBJECT_ID": "2024-079A",
        "EPOCH": "2026-07-08T05:56:26.013120",
        "MEAN_MOTION": 1.70473736,
        "ECCENTRICITY": 7.776e-05,
        "INCLINATION": 55.1311,
        "RA_OF_ASC_NODE": 100.4922,
        "ARG_OF_PERICENTER": 311.6524,
        "MEAN_ANOMALY": 239.233,
        "EPHEMERIS_TYPE": 0,
        "CLASSIFICATION_TYPE": "U",
        "NORAD_CAT_ID": 59598,
        "ELEMENT_SET_NO": 999,
        "REV_AT_EPOCH": 1367,
        "BSTAR": 0,
        "MEAN_MOTION_DOT": -9e-08,
        "MEAN_MOTION_DDOT": 0
    },
    {
        "OBJECT_NAME": "GSAT0227 (GALILEO 30)",
        "OBJECT_ID": "2024-079C",
        "EPOCH": "2026-07-06T22:43:23.740320",
        "MEAN_MOTION": 1.70473885,
        "ECCENTRICITY": 0.00026347,
        "INCLINATION": 55.126,
        "RA_OF_ASC_NODE": 100.5264,
        "ARG_OF_PERICENTER": 63.1115,
        "MEAN_ANOMALY": 296.9336,
        "EPHEMERIS_TYPE": 0,
        "CLASSIFICATION_TYPE": "U",
        "NORAD_CAT_ID": 59600,
        "ELEMENT_SET_NO": 999,
        "REV_AT_EPOCH": 1370,
        "BSTAR": 0,
        "MEAN_MOTION_DOT": -3e-08,
        "MEAN_MOTION_DDOT": 0
    },
    {
        "OBJECT_NAME": "GSAT0232 (GALILEO 32)",
        "OBJECT_ID": "2024-167A",
        "EPOCH": "2026-07-10T03:16:33.487680",
        "MEAN_MOTION": 1.70473966,
        "ECCENTRICITY": 0.00064707,
        "INCLINATION": 55.1805,
        "RA_OF_ASC_NODE": 220.6842,
        "ARG_OF_PERICENTER": 230.0654,
        "MEAN_ANOMALY": 143.1873,
        "EPHEMERIS_TYPE": 0,
        "CLASSIFICATION_TYPE": "U",
        "NORAD_CAT_ID": 61182,
        "ELEMENT_SET_NO": 999,
        "REV_AT_EPOCH": 1127,
        "BSTAR": 0,
        "MEAN_MOTION_DOT": 9e-07,
        "MEAN_MOTION_DDOT": 0
    },
    {
        "OBJECT_NAME": "GSAT0226 (GALILEO 31)",
        "OBJECT_ID": "2024-167B",
        "EPOCH": "2026-07-08T18:53:28.717152",
        "MEAN_MOTION": 1.70473959,
        "ECCENTRICITY": 0.00031638,
        "INCLINATION": 55.1792,
        "RA_OF_ASC_NODE": 220.7283,
        "ARG_OF_PERICENTER": 233.9566,
        "MEAN_ANOMALY": 122.4953,
        "EPHEMERIS_TYPE": 0,
        "CLASSIFICATION_TYPE": "U",
        "NORAD_CAT_ID": 61183,
        "ELEMENT_SET_NO": 999,
        "REV_AT_EPOCH": 1121,
        "BSTAR": 0,
        "MEAN_MOTION_DOT": 8.7e-07,
        "MEAN_MOTION_DDOT": 0
    },
    {
        "OBJECT_NAME": "GSAT0233 (GALILEO 33)",
        "OBJECT_ID": "2025-302A",
        "EPOCH": "2026-07-08T17:37:03.024192",
        "MEAN_MOTION": 1.70473891,
        "ECCENTRICITY": 8.585e-05,
        "INCLINATION": 54.3473,
        "RA_OF_ASC_NODE": 101.5178,
        "ARG_OF_PERICENTER": 172.7787,
        "MEAN_ANOMALY": 247.6086,
        "EPHEMERIS_TYPE": 0,
        "CLASSIFICATION_TYPE": "U",
        "NORAD_CAT_ID": 67160,
        "ELEMENT_SET_NO": 999,
        "REV_AT_EPOCH": 349,
        "BSTAR": 0,
        "MEAN_MOTION_DOT": -1.2e-07,
        "MEAN_MOTION_DDOT": 0
    },
    {
        "OBJECT_NAME": "GSAT0234 (GALILEO 34)",
        "OBJECT_ID": "2025-302C",
        "EPOCH": "2026-07-08T15:15:42.108192",
        "MEAN_MOTION": 1.70473878,
        "ECCENTRICITY": 0.00021916,
        "INCLINATION": 54.3489,
        "RA_OF_ASC_NODE": 101.5195,
        "ARG_OF_PERICENTER": 318.8515,
        "MEAN_ANOMALY": 221.3959,
        "EPHEMERIS_TYPE": 0,
        "CLASSIFICATION_TYPE": "U",
        "NORAD_CAT_ID": 67162,
        "ELEMENT_SET_NO": 999,
        "REV_AT_EPOCH": 354,
        "BSTAR": 0,
        "MEAN_MOTION_DOT": -1.2e-07,
        "MEAN_MOTION_DDOT": 0
    }
]